ONEWEB-0125             
1 47271U 20100P   26026.90714443 -.00000090  00000+0 -28477-3 0  9993
2 47271  87.8939  18.6962 0002010  80.9173 279.2183 13.12440480246102
ONEWEB-0126             
1 47272U 20100Q   26026.92762942 -.00000339  00000+0 -97658-3 0  9996
2 47272  87.8941  18.7149 0001820  91.5188 268.6149 13.12444183246171
ONEWEB-0127             
1 47273U 20100R   26027.19856636  .00000328  00000+0  87571-3 0  9990
2 47273  87.8934  18.6690 0001712  91.1300 269.0025 13.12442953246234
ONEWEB-0128             
1 47274U 20100S   26027.22057140 -.00000351  00000+0 -10124-2 0  9995
2 47274  87.8930  18.6791 0001461  83.4884 276.6411 13.12442258246258
ONEWEB-0129             
1 47275U 20100T   26027.20025177  .00000256  00000+0  67699-3 0  9991
2 47275  87.8943  18.6428 0002054 121.4284 238.7045 13.12442414246184
ONEWEB-0130             
1 47276U 20100U   26027.22733440 -.00000401  00000+0 -11514-2 0  9991
2 47276  87.8940  18.6308 0001728  89.4133 270.7193 13.12441663246154
ONEWEB-0131             
1 47277U 20100V   26026.91901827 -.00000346  00000+0 -99631-3 0  9998
2 47277  87.8942  18.7231 0001724  87.0010 273.1316 13.12443168246153
ONEWEB-0132             
1 47278U 20100W   26026.71910232  .00000291  00000+0  77377-3 0  9997
2 47278  87.8934  18.7631 0001707  85.7297 274.4027 13.12442208246025
ONEWEB-0133             
1 47279U 20100X   26026.50719298  .00000411  00000+0  11071-2 0  9996
2 47279  87.8938  18.7671 0001655  83.7185 276.4132 13.12441101246154
ONEWEB-0134             
1 47280U 20100Y   26026.70554503 -.00000386  00000+0 -11095-2 0  9995
2 47280  87.8941  18.7242 0001533  90.8358 269.2946 13.12443342246152
ONEWEB-0135             
1 47281U 20100Z   26027.21041319 -.00000092  00000+0 -29140-3 0  9994
2 47281  87.8938  18.6626 0001403  88.8150 271.3139 13.12441475246240
ONEWEB-0136             
1 47282U 20100AA  26027.22904521 -.00000402  00000+0 -11539-2 0  9996
2 47282  87.8943  18.6292 0001454  96.2263 263.9032 13.12443454246170
ONEWEB-0137             
1 47283U 20100AB  26027.26292897  .00000477  00000+0  12897-2 0  9995
2 47283  87.8941  18.6280 0001950  86.4999 273.6353 13.12442445246087
ONEWEB-0138             
1 47284U 20100AC  26027.24089041 -.00000188  00000+0 -55713-3 0  9995
2 47284  87.8947  18.6413 0001635  91.9884 268.1432 13.12442874246168
ONEWEB-0139             
1 47285U 20100AD  26027.05299284  .00000109  00000+0  26742-3 0  9998
2 47285  87.8937  18.6669 0001757  86.9733 273.1597 13.12441578246217
ONEWEB-0140             
1 47286U 20100AE  26027.23581898 -.00000337  00000+0 -97290-3 0  9995
2 47286  87.8939  18.6190 0001662  81.6027 278.5290 13.12442841246204
