[{"OBJECT_NAME":"ONEWEB-0125","OBJECT_ID":"2020-100P","EPOCH":"2026-01-26T21:46:17.278752","MEAN_MOTION":13.1244048,"ECCENTRICITY":0.00020107,"INCLINATION":87.8939,"RA_OF_ASC_NODE":18.6962,"ARG_OF_PERICENTER":80.9173,"MEAN_ANOMALY":279.2183,"EPHEMERIS_TYPE":0,"CLASSIFICATION_TYPE":"U","NORAD_CAT_ID":47271,"ELEMENT_SET_NO":999,"REV_AT_EPOCH":24610,"BSTAR":-0.00028477067,"MEAN_MOTION_DOT":-9.0e-7,"MEAN_MOTION_DDOT":0},{"OBJECT_NAME":"ONEWEB-0126","OBJECT_ID":"2020-100Q","EPOCH":"2026-01-26T22:15:47.181888","MEAN_MOTION":13.12444183,"ECCENTRICITY":0.00018201,"INCLINATION":87.8941,"RA_OF_ASC_NODE":18.7149,"ARG_OF_PERICENTER":91.5188,"MEAN_ANOMALY":268.6149,"EPHEMERIS_TYPE":0,"CLASSIFICATION_TYPE":"U","NORAD_CAT_ID":47272,"ELEMENT_SET_NO":999,"REV_AT_EPOCH":24617,"BSTAR":-0.00097658034,"MEAN_MOTION_DOT":-3.39e-6,"MEAN_MOTION_DDOT":0},{"OBJECT_NAME":"ONEWEB-0127","OBJECT_ID":"2020-100R","EPOCH":"2026-01-27T04:45:56.133504","MEAN_MOTION":13.12442953,"ECCENTRICITY":0.00017124,"INCLINATION":87.8934,"RA_OF_ASC_NODE":18.669,"ARG_OF_PERICENTER":91.13,"MEAN_ANOMALY":269.0025,"EPHEMERIS_TYPE":0,"CLASSIFICATION_TYPE":"U","NORAD_CAT_ID":47273,"ELEMENT_SET_NO":999,"REV_AT_EPOCH":24623,"BSTAR":0.00087571124,"MEAN_MOTION_DOT":3.28e-6,"MEAN_MOTION_DDOT":0},{"OBJECT_NAME":"ONEWEB-0128","OBJECT_ID":"2020-100S","EPOCH":"2026-01-27T05:17:37.368960","MEAN_MOTION":13.12442258,"ECCENTRICITY":0.00014617,"INCLINATION":87.893,"RA_OF_ASC_NODE":18.6791,"ARG_OF_PERICENTER":83.4884,"MEAN_ANOMALY":276.6411,"EPHEMERIS_TYPE":0,"CLASSIFICATION_TYPE":"U","NORAD_CAT_ID":47274,"ELEMENT_SET_NO":999,"REV_AT_EPOCH":24625,"BSTAR":-0.0010124259,"MEAN_MOTION_DOT":-3.51e-6,"MEAN_MOTION_DDOT":0},{"OBJECT_NAME":"ONEWEB-0129","OBJECT_ID":"2020-100T","EPOCH":"2026-01-27T04:48:21.752928","MEAN_MOTION":13.12442414,"ECCENTRICITY":0.0002054,"INCLINATION":87.8943,"RA_OF_ASC_NODE":18.6428,"ARG_OF_PERICENTER":121.4284,"MEAN_ANOMALY":238.7045,"EPHEMERIS_TYPE":0,"CLASSIFICATION_TYPE":"U","NORAD_CAT_ID":47275,"ELEMENT_SET_NO":999,"REV_AT_EPOCH":24618,"BSTAR":0.00067699116,"MEAN_MOTION_DOT":2.56e-6,"MEAN_MOTION_DDOT":0},{"OBJECT_NAME":"ONEWEB-0130","OBJECT_ID":"2020-100U","EPOCH":"2026-01-27T05:27:21.692160","MEAN_MOTION":13.12441663,"ECCENTRICITY":0.00017286,"INCLINATION":87.894,"RA_OF_ASC_NODE":18.6308,"ARG_OF_PERICENTER":89.4133,"MEAN_ANOMALY":270.7193,"EPHEMERIS_TYPE":0,"CLASSIFICATION_TYPE":"U","NORAD_CAT_ID":47276,"ELEMENT_SET_NO":999,"REV_AT_EPOCH":24615,"BSTAR":-0.0011513631,"MEAN_MOTION_DOT":-4.01e-6,"MEAN_MOTION_DDOT":0},{"OBJECT_NAME":"ONEWEB-0131","OBJECT_ID":"2020-100V","EPOCH":"2026-01-26T22:03:23.178528","MEAN_MOTION":13.12443168,"ECCENTRICITY":0.00017246,"INCLINATION":87.8942,"RA_OF_ASC_NODE":18.7231,"ARG_OF_PERICENTER":87.001,"MEAN_ANOMALY":273.1316,"EPHEMERIS_TYPE":0,"CLASSIFICATION_TYPE":"U","NORAD_CAT_ID":47277,"ELEMENT_SET_NO":999,"REV_AT_EPOCH":24615,"BSTAR":-0.00099630872,"MEAN_MOTION_DOT":-3.46e-6,"MEAN_MOTION_DDOT":0},{"OBJECT_NAME":"ONEWEB-0132","OBJECT_ID":"2020-100W","EPOCH":"2026-01-26T17:15:30.440448","MEAN_MOTION":13.12442208,"ECCENTRICITY":0.00017075,"INCLINATION":87.8934,"RA_OF_ASC_NODE":18.7631,"ARG_OF_PERICENTER":85.7297,"MEAN_ANOMALY":274.4027,"EPHEMERIS_TYPE":0,"CLASSIFICATION_TYPE":"U","NORAD_CAT_ID":47278,"ELEMENT_SET_NO":999,"REV_AT_EPOCH":24602,"BSTAR":0.00077377092,"MEAN_MOTION_DOT":2.91e-6,"MEAN_MOTION_DDOT":0},{"OBJECT_NAME":"ONEWEB-0133","OBJECT_ID":"2020-100X","EPOCH":"2026-01-26T12:10:21.473472","MEAN_MOTION":13.12441101,"ECCENTRICITY":0.00016555,"INCLINATION":87.8938,"RA_OF_ASC_NODE":18.7671,"ARG_OF_PERICENTER":83.7185,"MEAN_ANOMALY":276.4132,"EPHEMERIS_TYPE":0,"CLASSIFICATION_TYPE":"U","NORAD_CAT_ID":47279,"ELEMENT_SET_NO":999,"REV_AT_EPOCH":24615,"BSTAR":0.0011071047,"MEAN_MOTION_DOT":4.11e-6,"MEAN_MOTION_DDOT":0},{"OBJECT_NAME":"ONEWEB-0134","OBJECT_ID":"2020-100Y","EPOCH":"2026-01-26T16:55:59.090592","MEAN_MOTION":13.12443342,"ECCENTRICITY":0.00015339,"INCLINATION":87.8941,"RA_OF_ASC_NODE":18.7242,"ARG_OF_PERICENTER":90.8358,"MEAN_ANOMALY":269.2946,"EPHEMERIS_TYPE":0,"CLASSIFICATION_TYPE":"U","NORAD_CAT_ID":47280,"ELEMENT_SET_NO":999,"REV_AT_EPOCH":24615,"BSTAR":-0.0011095377,"MEAN_MOTION_DOT":-3.86e-6,"MEAN_MOTION_DDOT":0},{"OBJECT_NAME":"ONEWEB-0135","OBJECT_ID":"2020-100Z","EPOCH":"2026-01-27T05:02:59.699616","MEAN_MOTION":13.12441475,"ECCENTRICITY":0.00014033,"INCLINATION":87.8938,"RA_OF_ASC_NODE":18.6626,"ARG_OF_PERICENTER":88.815,"MEAN_ANOMALY":271.3139,"EPHEMERIS_TYPE":0,"CLASSIFICATION_TYPE":"U","NORAD_CAT_ID":47281,"ELEMENT_SET_NO":999,"REV_AT_EPOCH":24624,"BSTAR":-0.00029139779,"MEAN_MOTION_DOT":-9.2e-7,"MEAN_MOTION_DDOT":0},{"OBJECT_NAME":"ONEWEB-0136","OBJECT_ID":"2020-100AA","EPOCH":"2026-01-27T05:29:49.506144","MEAN_MOTION":13.12443454,"ECCENTRICITY":0.00014545,"INCLINATION":87.8943,"RA_OF_ASC_NODE":18.6292,"ARG_OF_PERICENTER":96.2263,"MEAN_ANOMALY":263.9032,"EPHEMERIS_TYPE":0,"CLASSIFICATION_TYPE":"U","NORAD_CAT_ID":47282,"ELEMENT_SET_NO":999,"REV_AT_EPOCH":24617,"BSTAR":-0.0011538817,"MEAN_MOTION_DOT":-4.02e-6,"MEAN_MOTION_DDOT":0},{"OBJECT_NAME":"ONEWEB-0137","OBJECT_ID":"2020-100AB","EPOCH":"2026-01-27T06:18:37.063008","MEAN_MOTION":13.12442445,"ECCENTRICITY":0.00019505,"INCLINATION":87.8941,"RA_OF_ASC_NODE":18.628,"ARG_OF_PERICENTER":86.4999,"MEAN_ANOMALY":273.6353,"EPHEMERIS_TYPE":0,"CLASSIFICATION_TYPE":"U","NORAD_CAT_ID":47283,"ELEMENT_SET_NO":999,"REV_AT_EPOCH":24608,"BSTAR":0.0012896573,"MEAN_MOTION_DOT":4.77e-6,"MEAN_MOTION_DDOT":0},{"OBJECT_NAME":"ONEWEB-0138","OBJECT_ID":"2020-100AC","EPOCH":"2026-01-27T05:46:52.931424","MEAN_MOTION":13.12442874,"ECCENTRICITY":0.00016354,"INCLINATION":87.8947,"RA_OF_ASC_NODE":18.6413,"ARG_OF_PERICENTER":91.9884,"MEAN_ANOMALY":268.1432,"EPHEMERIS_TYPE":0,"CLASSIFICATION_TYPE":"U","NORAD_CAT_ID":47284,"ELEMENT_SET_NO":999,"REV_AT_EPOCH":24616,"BSTAR":-0.00055713201,"MEAN_MOTION_DOT":-1.88e-6,"MEAN_MOTION_DDOT":0},{"OBJECT_NAME":"ONEWEB-0139","OBJECT_ID":"2020-100AD","EPOCH":"2026-01-27T01:16:18.581376","MEAN_MOTION":13.12441578,"ECCENTRICITY":0.00017576,"INCLINATION":87.8937,"RA_OF_ASC_NODE":18.6669,"ARG_OF_PERICENTER":86.9733,"MEAN_ANOMALY":273.1597,"EPHEMERIS_TYPE":0,"CLASSIFICATION_TYPE":"U","NORAD_CAT_ID":47285,"ELEMENT_SET_NO":999,"REV_AT_EPOCH":24621,"BSTAR":0.00026741611,"MEAN_MOTION_DOT":1.09e-6,"MEAN_MOTION_DDOT":0},{"OBJECT_NAME":"ONEWEB-0140","OBJECT_ID":"2020-100AE","EPOCH":"2026-01-27T05:39:34.759872","MEAN_MOTION":13.12442841,"ECCENTRICITY":0.00016625,"INCLINATION":87.8939,"RA_OF_ASC_NODE":18.619,"ARG_OF_PERICENTER":81.6027,"MEAN_ANOMALY":278.529,"EPHEMERIS_TYPE":0,"CLASSIFICATION_TYPE":"U","NORAD_CAT_ID":47286,"ELEMENT_SET_NO":999,"REV_AT_EPOCH":24620,"BSTAR":-0.00097289578,"MEAN_MOTION_DOT":-3.37e-6,"MEAN_MOTION_DDOT":0}]
